NORAD_CAT_ID,OBJECT_NAME,OBJECT_TYPE,EPOCH,MEAN_MOTION,ECCENTRICITY,INCLINATION,RA_OF_ASC_NODE,ARG_OF_PERICENTER,MEAN_ANOMALY,BSTAR,MEAN_MOTION_DOT,MEAN_MOTION_DDOT,TLE_LINE0,TLE_LINE1,TLE_LINE2,SEMIMAJOR_AXIS,PERIOD,APOGEE,PERIGEE,DECAYED
52094.0,STARLINK-3714,PAYLOAD,2023-03-20 17:32:24,15.08836104,0.0001089,53.2141,279.689,89.4293,270.6823,0.00014847,2.076e-05,0.0,0 STARLINK-3714,1 52094U 22029G   23079.73083805  .00002076  00000-0  14847-3 0  9992,2 52094  53.2141 279.6890 0001089  89.4293 270.6823 15.08836104 56861,6917.892,95.438,540.511,539.004,0.0
52094.0,STARLINK-3714,PAYLOAD,2023-03-21 06:15:29,15.08843625,0.0001202,53.2144,277.3106,88.9724,271.1406,0.00030612,4.588e-05,0.0,0 STARLINK-3714,1 52094U 22029G   23080.26075807  .00004588  00000-0  30612-3 0  9993,2 52094  53.2144 277.3106 0001202  88.9724 271.1406 15.08843625 56947,6917.869,95.437,540.566,538.903,0.0
52094.0,STARLINK-3714,PAYLOAD,2023-03-21 18:58:34,15.08846492,0.0001275,53.2144,274.9321,87.5109,272.6029,0.00041262,6.286e-05,0.0,0 STARLINK-3714,1 52094U 22029G   23080.79067805  .00006286  00000-0  41262-3 0  9990,2 52094  53.2144 274.9321 0001275  87.5109 272.6029 15.08846492 57023,6917.861,95.437,540.608,538.844,0.0
52094.0,STARLINK-3714,PAYLOAD,2023-03-21 22:09:20,15.08850682,0.0001216,53.2142,274.3363,86.6421,273.471,0.00050729,7.797e-05,0.0,0 STARLINK-3714,1 52094U 22029G   23080.92315643  .00007797  00000-0  50729-3 0  9997,2 52094  53.2142 274.3363 0001216  86.6421 273.4710 15.08850682 57047,6917.848,95.437,540.554,538.872,0.0
52094.0,STARLINK-3714,PAYLOAD,2023-03-22 06:06:16,15.08843387,0.0001257,53.2145,272.8475,86.0371,274.0764,0.00019904,2.882e-05,0.0,0 STARLINK-3714,1 52094U 22029G   23081.25435750  .00002882  00000-0  19904-3 0  9996,2 52094  53.2145 272.8475 0001257  86.0371 274.0764 15.08843387 57095,6917.87,95.437,540.605,538.865,0.0
52094.0,STARLINK-3714,PAYLOAD,2023-03-22 18:49:21,15.08845412,0.0001294,53.2144,270.4682,85.4897,274.6243,0.0001848,2.655e-05,0.0,0 STARLINK-3714,1 52094U 22029G   23081.78427646  .00002655  00000-0  18480-3 0  9995,2 52094  53.2144 270.4682 0001294  85.4897 274.6243 15.08845412 57173,6917.864,95.437,540.624,538.834,0.0
52094.0,STARLINK-3714,PAYLOAD,2023-03-23 12:18:36,15.08841285,0.0001507,53.2152,267.199,84.4152,275.7012,9.5713e-05,1.236e-05,0.0,0 STARLINK-3714,1 52094U 22029G   23082.51291982  .00001236  00000-0  95713-4 0  9998,2 52094  53.2152 267.1990 0001507  84.4152 275.7012 15.08841285 57289,6917.876,95.437,540.784,538.699,0.0
52094.0,STARLINK-3714,PAYLOAD,2023-03-23 18:40:08,15.08845173,0.0001391,53.2147,266.0097,84.9651,275.15,0.000244,3.598e-05,0.0,0 STARLINK-3714,1 52094U 22029G   23082.77787838  .00003598  00000-0  24400-3 0  9993,2 52094  53.2147 266.0097 0001391  84.9651 275.1500 15.08845173 57320,6917.865,95.437,540.692,538.767,0.0
52094.0,STARLINK-3714,PAYLOAD,2023-03-24 15:20:08,15.08874237,0.0001375,53.2152,262.1438,85.9035,274.2115,0.00070392,0.00010943,0.0,0 STARLINK-3714,1 52094U 22029G   23083.63898264  .00010943  00000-0  70392-3 0  9998,2 52094  53.2152 262.1438 0001375  85.9035 274.2115 15.08874237 57450,6917.776,95.435,540.592,538.69,0.0
52094.0,STARLINK-3714,PAYLOAD,2023-03-24 18:30:54,15.08888987,0.0001342,53.2154,261.5482,89.1984,270.9161,0.0013505,0.00021299,0.0,0 STARLINK-3714,1 52094U 22029G   23083.77145972  .00021299  00000-0  13505-2 0  9992,2 52094  53.2154 261.5482 0001342  89.1984 270.9161 15.08888987 57470,6917.731,95.434,540.524,538.667,0.0
52094.0,STARLINK-3714,PAYLOAD,2023-03-24 23:17:02,15.08895054,0.0001353,53.216,260.6566,89.2401,270.8747,0.0011972,0.00018845,0.0,0 STARLINK-3714,1 52094U 22029G   23083.97017284  .00018845  00000-0  11972-2 0  9997,2 52094  53.2160 260.6566 0001353  89.2401 270.8747 15.08895054 57503,6917.712,95.434,540.513,538.641,0.0
52094.0,STARLINK-3714,PAYLOAD,2023-03-25 18:21:43,15.08795707,0.0001429,53.2171,257.0913,68.756,291.3585,-0.00060863,-9.949e-05,0.0,0 STARLINK-3714,1 52094U 22029G   23084.76508564 -.00009949  00000-0 -60863-3 0  9992,2 52094  53.2171 257.0913 0001429  68.7560 291.3585 15.08795707 57628,6918.016,95.44,540.869,538.892,0.0
52094.0,STARLINK-3714,PAYLOAD,2023-03-26 03:54:03,15.08807754,8.73e-05,53.2156,255.3056,67.9883,292.1202,0.001012,0.00015841,0.0,0 STARLINK-3714,1 52094U 22029G   23085.16253481  .00015841  00000-0  10120-2 0  9998,2 52094  53.2156 255.3056 0000873  67.9883 292.1202 15.08807754 57688,6917.979,95.44,540.448,539.24,0.0
52094.0,STARLINK-3714,PAYLOAD,2023-03-26 18:12:32,15.08832117,0.0001498,53.2158,252.629,58.4211,301.6927,0.0026882,0.00042745,0.0,0 STARLINK-3714,1 52094U 22029G   23085.75870463  .00042745  00000-0  26882-2 0  9993,2 52094  53.2158 252.6290 0001498  58.4211 301.6927 15.08832117 57775,6917.904,95.438,540.806,538.733,0.0
52094.0,STARLINK-3714,PAYLOAD,2023-03-27 03:44:49,15.08859629,5.87e-05,53.2156,250.8459,38.4723,321.6311,0.00065705,0.0001019,0.0,0 STARLINK-3714,1 52094U 22029G   23086.15613203  .00010190  00000-0  65705-3 0  9992,2 52094  53.2156 250.8459 0000587  38.4723 321.6311 15.08859629 57837,6917.82,95.436,540.091,539.279,0.0
52094.0,STARLINK-3714,PAYLOAD,2023-03-27 10:06:22,15.08862837,0.000117,53.2153,249.6553,51.1495,308.9601,0.0010354,0.00016239,0.0,0 STARLINK-3714,1 52094U 22029G   23086.42109186  .00016239  00000-0  10354-2 0  9991,2 52094  53.2153 249.6553 0001170  51.1495 308.9601 15.08862837 57871,6917.811,95.436,540.485,538.866,0.0
52094.0,STARLINK-3714,PAYLOAD,2023-03-27 18:03:17,15.08878648,0.0001364,53.2149,248.1684,52.0747,308.0368,0.0015047,0.00023766,0.0,0 STARLINK-3714,1 52094U 22029G   23086.75228503  .00023766  00000-0  15047-2 0  9999,2 52094  53.2149 248.1684 0001364  52.0747 308.0368 15.08878648 57924,6917.762,95.435,540.571,538.684,0.0
52094.0,STARLINK-3714,PAYLOAD,2023-03-28 11:32:31,15.0886194,0.0001434,53.2151,244.8972,59.7364,300.377,0.0013796,0.0002175,0.0,0 STARLINK-3714,1 52094U 22029G   23087.48092255  .00021750  00000-0  13796-2 0  9993,2 52094  53.2151 244.8972 0001434  59.7364 300.3770 15.08861940 58039,6917.813,95.436,540.67,538.686,0.0
52094.0,STARLINK-3714,PAYLOAD,2023-03-28 17:54:04,15.08858131,0.0001458,53.2151,243.7065,54.096,306.0167,0.0005,7.682e-05,0.0,0 STARLINK-3714,1 52094U 22029G   23087.74588088  .00007682  00000-0  50000-3 0  9994,2 52094  53.2151 243.7065 0001458  54.0960 306.0167 15.08858131 58071,6917.825,95.436,540.699,538.681,0.0
52094.0,STARLINK-3714,PAYLOAD,2023-03-29 03:26:23,15.08848209,0.0001296,53.2146,241.9234,70.3105,289.8027,0.00030336,4.544e-05,0.0,0 STARLINK-3714,1 52094U 22029G   23088.14332205  .00004544  00000-0  30336-3 0  9991,2 52094  53.2146 241.9234 0001296  70.3105 289.8027 15.08848209 58130,6917.855,95.437,540.617,538.824,0.0
52094.0,STARLINK-3714,PAYLOAD,2023-03-29 09:47:55,15.08845241,0.000171,53.2148,240.7376,72.3414,287.7765,-0.00028848,-4.877e-05,0.0,0 STARLINK-3714,1 52094U 22029G   23088.40828322 -.00004877  00000-0 -28848-3 0  9996,2 52094  53.2148 240.7376 0001710  72.3414 287.7765 15.08845241 58175,6917.864,95.437,540.912,538.546,0.0
52094.0,STARLINK-3714,PAYLOAD,2023-03-29 17:44:51,15.0884618,0.0001455,53.2142,239.2483,70.7341,289.3808,0.00023396,3.438e-05,0.0,0 STARLINK-3714,1 52094U 22029G   23088.73948501  .00003438  00000-0  23396-3 0  9997,2 52094  53.2142 239.2483 0001455  70.7341 289.3808 15.08846180 58223,6917.861,95.437,540.733,538.72,0.0
52094.0,STARLINK-3714,PAYLOAD,2023-03-29 22:31:00,15.0885464,0.0001081,53.2146,238.3526,79.2664,280.845,0.0010313,0.0001617,0.0,0 STARLINK-3714,1 52094U 22029G   23088.93820220  .00016170  00000-0  10313-2 0  9997,2 52094  53.2146 238.3526 0001081  79.2664 280.8450 15.08854640 58254,6917.836,95.437,540.448,538.953,0.0
52094.0,STARLINK-3714,PAYLOAD,2023-03-30 16:00:15,15.08850657,0.0002125,53.2154,235.0844,45.1251,314.9914,0.0008397,0.00013105,0.0,0 STARLINK-3714,1 52094U 22029G   23089.66684800  .00013105  00000-0  83970-3 0  9995,2 52094  53.2154 235.0844 0002125  45.1251 314.9914 15.08850657 58364,6917.848,95.437,541.183,538.243,0.0
52094.0,STARLINK-3714,PAYLOAD,2023-03-30 20:46:24,15.0888102,0.0001525,53.2151,234.1906,72.7604,287.3555,0.0018106,0.00028678,0.0,0 STARLINK-3714,1 52094U 22029G   23089.86555914  .00028678  00000-0  18106-2 0  9999,2 52094  53.2151 234.1906 0001525  72.7604 287.3555 15.08881020 58396,6917.755,95.435,540.675,538.565,0.0
52094.0,STARLINK-3714,PAYLOAD,2023-03-31 09:29:29,15.08850442,0.0001362,53.214,231.8136,100.4545,259.66,0.00093642,0.00014651,0.0,0 STARLINK-3714,1 52094U 22029G   23090.39548137  .00014651  00000-0  93642-3 0  9993,2 52094  53.2140 231.8136 0001362 100.4545 259.6600 15.08850442 58471,6917.848,95.437,540.656,538.771,0.0
52094.0,STARLINK-3714,PAYLOAD,2023-04-01 09:20:16,15.08853838,0.0001501,53.2153,227.3491,108.4451,251.6705,0.0013305,0.00020958,0.0,0 STARLINK-3714,1 52094U 22029G   23091.38908544  .00020958  00000-0  13305-2 0  9999,2 52094  53.2153 227.3491 0001501 108.4451 251.6705 15.08853838 58625,6917.838,95.437,540.741,538.665,0.0
52094.0,STARLINK-3714,PAYLOAD,2023-04-01 12:31:03,15.0884311,0.0001174,53.2154,226.7579,69.4842,290.6276,0.0013926,0.00021947,0.0,0 STARLINK-3714,1 52094U 22029G   23091.52157077  .00021947  00000-0  13926-2 0  9990,2 52094  53.2154 226.7579 0001174  69.4842 290.6276 15.08843110 58642,6917.871,95.437,540.548,538.924,0.0
52094.0,STARLINK-3714,PAYLOAD,2023-04-01 15:41:50,15.08826248,0.0001207,53.2156,226.1619,76.2974,283.8152,0.0013887,0.00021874,0.0,0 STARLINK-3714,1 52094U 22029G   23091.65405161  .00021874  00000-0  13887-2 0  9999,2 52094  53.2156 226.1619 0001207  76.2974 283.8152 15.08826248 58664,6917.922,95.438,540.622,538.952,0.0
52094.0,STARLINK-3714,PAYLOAD,2023-04-02 13:57:13,15.08854973,0.0001223,53.2147,221.9984,75.811,284.3018,0.00087969,0.00013746,0.0,0 STARLINK-3714,1 52094U 22029G   23092.58140933  .00013746  00000-0  87969-3 0  9997,2 52094  53.2147 221.9984 0001223  75.8110 284.3018 15.08854973 58806,6917.835,95.437,540.546,538.854,0.0
